{
    "links": {
        "self": "http://www.neowsapp.com/rest/v1/neo/54075593?api_key=iIulBulltgU6a56xZRHN4H3l9WmuAYTsLGpBGhQ2"
    },
    "id": "54075593",
    "neo_reference_id": "54075593",
    "name": "(2020 UX2)",
    "designation": "2020 UX2",
    "nasa_jpl_url": "http://ssd.jpl.nasa.gov/sbdb.cgi?sstr=54075593",
    "absolute_magnitude_h": 23.4,
    "estimated_diameter": {
        "kilometers": {
            "estimated_diameter_min": 0.0555334912,
            "estimated_diameter_max": 0.1241766613
        },
        "meters": {
            "estimated_diameter_min": 55.5334911581,
            "estimated_diameter_max": 124.1766612574
        },
        "miles": {
            "estimated_diameter_min": 0.0345069009,
            "estimated_diameter_max": 0.0771597762
        },
        "feet": {
            "estimated_diameter_min": 182.1964991311,
            "estimated_diameter_max": 407.4037573197
        }
    },
    "is_potentially_hazardous_asteroid": false,
    "close_approach_data": [
        {
            "close_approach_date": "2020-05-29",
            "close_approach_date_full": "2020-May-29 11:26",
            "epoch_date_close_approach": 1590751560000,
            "relative_velocity": {
                "kilometers_per_second": "7.5411270598",
                "kilometers_per_hour": "27148.0574153118",
                "miles_per_hour": "16868.7471200864"
            },
            "miss_distance": {
                "astronomical": "0.3394413007",
                "lunar": "132.0426659723",
                "kilometers": "50779695.574749509",
                "miles": "31553039.6962568642"
            },
            "orbiting_body": "Earth"
        },
        {
            "close_approach_date": "2020-09-30",
            "close_approach_date_full": "2020-Sep-30 23:41",
            "epoch_date_close_approach": 1601509260000,
            "relative_velocity": {
                "kilometers_per_second": "9.8381517963",
                "kilometers_per_hour": "35417.3464666151",
                "miles_per_hour": "22006.9617531031"
            },
            "miss_distance": {
                "astronomical": "0.0977877435",
                "lunar": "38.0394322215",
                "kilometers": "14628838.139706345",
                "miles": "9089938.513963761"
            },
            "orbiting_body": "Earth"
        }
    ],
    "orbital_data": {
        "orbit_id": "1",
        "orbit_determination_date": "2020-10-21 05:12:12",
        "first_observation_date": "2020-10-19",
        "last_observation_date": "2020-10-21",
        "data_arc_in_days": 2,
        "observations_used": 35,
        "orbit_uncertainty": "9",
        "minimum_orbit_intersection": ".0443788",
        "jupiter_tisserand_invariant": "4.619",
        "epoch_osculation": "2459142.5",
        "eccentricity": ".325264279362999",
        "semi_major_axis": "1.417871458072207",
        "inclination": "15.9562881132158",
        "ascending_node_longitude": "19.25233535658138",
        "orbital_period": "616.6712721952512",
        "perihelion_distance": ".9566885200329862",
        "perihelion_argument": "308.2825094268812",
        "aphelion_distance": "1.879054396111429",
        "perihelion_time": "2459084.313507278574",
        "mean_anomaly": "33.96807719799384",
        "mean_motion": ".5837794238710967",
        "equinox": "J2000",
        "orbit_class": {
            "orbit_class_type": "APO",
            "orbit_class_description": "Near-Earth asteroid orbits which cross the Earth’s orbit similar to that of 1862 Apollo",
            "orbit_class_range": "a (semi-major axis) > 1.0 AU; q (perihelion) < 1.017 AU"
        }
    },
    "is_sentry_object": false
}